OBJECT_NAME,OBJECT_ID,EPOCH,MEAN_MOTION,ECCENTRICITY,INCLINATION,RA_OF_ASC_NODE,ARG_OF_PERICENTER,MEAN_ANOMALY,EPHEMERIS_TYPE,CLASSIFICATION_TYPE,NORAD_CAT_ID,ELEMENT_SET_NO,REV_AT_EPOCH,BSTAR,MEAN_MOTION_DOT,MEAN_MOTION_DDOT
STARLINK-31007,2024-020P,2026-06-13T21:21:47.632032,15.34390631,.0001187,53.1603,234.6043,99.9207,260.1930,0,U,58889,999,13281,.19692E-4,.289E-5,0
STARLINK-31230,2024-020Q,2026-06-13T11:37:00.287040,15.34393754,.0001322,53.1599,234.2358,113.6225,246.4916,0,U,58890,999,13278,.26274665E-4,.511E-5,0
STARLINK-31245,2024-020R,2026-06-13T09:03:09.154656,15.34394788,.00012201,53.1604,195.4162,100.6300,259.4840,0,U,58891,999,13447,.44445622E-4,.1125E-4,0
STARLINK-31255,2024-020T,2026-06-13T11:37:47.713728,15.34414983,.00010516,53.1605,236.3369,87.0768,273.0355,0,U,58893,999,13275,.11335153E-3,.3457E-4,0
STARLINK-31243,2024-020U,2026-06-13T21:23:35.531808,15.31703794,.0001668,53.1604,235.3239,117.1057,243.0114,0,U,58894,999,13280,-.10863E-3,-.3735E-4,0
STARLINK-31218,2024-020V,2026-06-13T11:46:23.834496,15.31685421,.00010654,53.1589,237.0844,104.3301,255.7819,0,U,58895,999,13274,-.9933965E-4,-.3445E-4,0
STARLINK-31190,2024-020X,2026-06-13T11:53:06.556992,15.31701575,.00016916,53.1616,237.1161,124.3843,235.7318,0,U,58897,999,13274,.10755673E-4,-.32E-6,0
STARLINK-31317,2024-027A,2026-06-14T00:00:02.000160,15.34359557,.0001068,53.1584,221.9774,77.7975,80.3594,0,U,58931,999,588,.15578E-2,.52559E-3,0
STARLINK-31378,2024-027B,2026-06-13T21:05:42.417024,15.31697643,.000136,53.1610,222.2477,89.0468,271.0689,0,U,58932,999,13206,.2208E-4,.32E-5,0
STARLINK-31350,2024-027C,2026-06-13T11:01:16.845600,15.30195753,.00012812,53.1609,224.6048,113.6902,246.4234,0,U,58933,999,13199,.20076695E-4,.235E-5,0
STARLINK-31337,2024-027D,2026-06-13T10:56:43.412928,15.30197853,.00014323,53.1598,224.5876,110.9708,249.1446,0,U,58934,999,13199,.38899421E-4,.793E-5,0
STARLINK-31362,2024-027E,2026-06-13T21:29:25.571040,15.30191661,.0001438,53.1604,223.0585,83.6328,276.4837,0,U,58935,999,13205,.28547E-4,.486E-5,0
STARLINK-31383,2024-027F,2026-06-13T21:27:54.705888,15.30187353,.0001509,53.1610,223.0498,95.4202,264.6971,0,U,58936,999,13205,.14213E-4,.62E-6,0
STARLINK-31390,2024-027G,2026-06-13T21:21:50.035680,15.30191439,.0001357,53.1605,223.0244,81.6297,278.4857,0,U,58937,999,13205,.19685E-4,.224E-5,0
STARLINK-31377,2024-027H,2026-06-13T21:26:22.480800,15.30202956,.0001448,53.1606,223.0413,106.7647,253.3513,0,U,58938,999,13205,.88512E-4,.2263E-4,0
STARLINK-31372,2024-027J,2026-06-13T21:17:16.426752,15.30184801,.0001486,53.1605,223.0020,111.4360,248.6800,0,U,58939,999,13205,-.4893E-4,-.1807E-4,0
STARLINK-31371,2024-027K,2026-06-13T21:15:45.891648,15.30181849,.0001324,53.1592,222.9973,91.5820,268.5333,0,U,58940,999,13205,-.20616E-4,-.969E-5,0
STARLINK-31345,2024-027L,2026-06-13T10:59:47.155488,15.30162080,.00015421,53.1612,224.5992,111.3842,248.7323,0,U,58941,999,13199,.13746613E-4,.47E-6,0
STARLINK-31354,2024-027M,2026-06-13T10:41:34.585152,15.31704794,.00011845,53.1595,224.5155,77.5065,282.6069,0,U,58942,999,13199,.31774394E-4,.621E-5,0
STARLINK-31346,2024-027N,2026-06-13T20:26:49.417440,15.30835112,.00012637,53.1586,220.6678,101.5202,258.5941,0,U,58943,999,13208,.20031259E-4,.243E-5,0
STARLINK-31336,2024-027P,2026-06-13T21:24:51.861024,15.30196643,.0001393,53.1603,223.0356,80.0823,280.0335,0,U,58944,999,13204,.33132E-4,.622E-5,0
STARLINK-31359,2024-027Q,2026-06-14T04:46:52.277952,15.30196717,.0000879,53.1591,182.9090,86.3094,273.8007,0,U,58945,999,13265,.13015E-4,.27E-6,0
STARLINK-31331,2024-027R,2026-06-13T21:19:08.579136,15.31700187,.0001397,53.1595,222.3024,90.2677,269.8484,0,U,58946,999,13206,.76143E-8,-.365E-5,0
STARLINK-31116,2024-027S,2026-06-13T21:25:51.679200,15.31697620,.000088,53.1583,222.3286,101.1024,259.0076,0,U,58947,999,13206,.11196E-3,.311E-4,0
STARLINK-31311,2024-027T,2026-06-13T20:36:59.993280,15.30192763,.00012973,53.1600,220.7043,88.1804,271.9345,0,U,58948,999,13208,.6283758E-5,-.173E-5,0
STARLINK-31294,2024-027U,2026-06-13T21:32:27.875040,15.30197461,.0001094,53.1589,223.0660,75.3692,284.7430,0,U,58949,999,13205,.77761E-4,.1944E-4,0
STARLINK-31330,2024-027W,2026-06-13T21:01:58.037088,15.34377766,.0000974,53.1595,218.6979,103.6602,256.4509,0,U,58951,999,13211,-.54358E-4,-.2211E-4,0
STARLINK-31293,2024-027X,2026-06-13T21:32:34.856160,15.31702743,.0001173,53.1596,222.3581,90.7765,269.3371,0,U,58952,999,13206,.17187E-4,.168E-5,0
STARLINK-31373,2024-031A,2026-06-13T09:59:41.877024,15.30235671,.00009153,53.1602,211.7563,81.6192,278.4912,0,U,58965,999,13119,.21375825E-3,.5984E-4,0
STARLINK-31449,2024-031B,2026-06-13T09:56:42.542592,15.30211877,.00013091,53.1589,211.7451,99.8972,260.2176,0,U,58966,999,13119,.11999006E-3,.3197E-4,0
STARLINK-31314,2024-031C,2026-06-13T10:05:49.326720,15.30198823,.00011741,53.1601,211.7807,96.4330,263.6804,0,U,58967,999,13119,.45948333E-4,.1002E-4,0
STARLINK-31356,2024-031D,2026-06-13T18:33:14.239872,15.30166649,.00012259,53.1590,182.5407,74.6191,285.4945,0,U,58968,999,13163,-.93591298E-4,-.3127E-4,0
STARLINK-31335,2024-031E,2026-06-13T20:06:31.721760,15.34392105,.00012863,53.1592,206.5716,86.8396,273.2754,0,U,58969,999,13130,.44380215E-4,.1123E-4,0
STARLINK-31368,2024-031F,2026-06-14T04:52:56.378784,15.30199739,.0001169,53.1589,208.1436,96.8700,263.2434,0,U,58970,999,13131,.57878E-4,.1355E-4,0
STARLINK-31333,2024-031G,2026-06-13T19:02:09.598560,15.30192979,.00012411,53.1591,197.7634,95.5109,264.6033,0,U,58971,999,13142,.9523633E-5,-.77E-6,0
STARLINK-31351,2024-031H,2026-06-13T19:54:27.532512,15.30192970,.00011965,53.1595,210.0607,91.1587,268.9551,0,U,58972,999,13124,.22925286E-4,.32E-5,0
STARLINK-31365,2024-031J,2026-06-13T20:03:34.600032,15.30191689,.00012051,53.1592,210.0989,95.7884,264.3254,0,U,58973,999,13125,.20746823E-4,.255E-5,0
STARLINK-31361,2024-031K,2026-06-13T19:59:02.148864,15.30182917,.00011949,53.1595,210.0732,78.7573,281.3562,0,U,58974,999,13125,-.12245945E-4,-.722E-5,0
STARLINK-31369,2024-031L,2026-06-13T20:08:08.217600,15.30189862,.00011632,53.1598,210.1190,91.5767,268.5367,0,U,58975,999,13123,-.180659E-5,-.413E-5,0
STARLINK-31324,2024-031M,2026-06-13T15:30:33.209280,15.30185798,.00012345,53.1589,211.0473,82.6965,277.4176,0,U,58976,999,13120,.21482078E-4,.277E-5,0
STARLINK-31358,2024-031N,2026-06-13T10:01:15.713472,15.30194736,.00011957,53.1602,211.7479,97.8485,262.2651,0,U,58977,999,13117,.55083724E-4,.1272E-4,0
STARLINK-31355,2024-031P,2026-06-13T20:17:15.323136,15.30188500,.0001183,53.1595,210.1576,93.0548,267.0588,0,U,58978,999,13123,.4232528E-5,-.234E-5,0
STARLINK-31380,2024-031Q,2026-06-13T20:21:48.560544,15.30194044,.00013746,53.1594,210.1786,84.1322,275.9835,0,U,58979,999,13123,-.4435086E-5,-.491E-5,0
STARLINK-31353,2024-031R,2026-06-13T20:18:46.889856,15.30171327,.00014009,53.1600,210.1664,99.6479,260.4680,0,U,58980,999,13123,.13049345E-3,.3504E-4,0
STARLINK-31339,2024-031S,2026-06-13T10:08:21.079680,15.34395739,.00011782,53.1597,211.0808,96.0866,264.0271,0,U,58981,999,13118,.34033083E-4,.774E-5,0
STARLINK-31384,2024-031U,2026-06-13T09:59:15.758304,15.34391707,.00014358,53.1603,211.0400,90.4782,269.6385,0,U,58983,999,13118,.26582831E-4,.522E-5,0
STARLINK-31379,2024-031V,2026-06-13T20:41:33.893376,15.30192348,.00012645,53.1597,210.2630,80.0239,280.0905,0,U,58984,999,13123,.24233092E-4,.358E-5,0
STARLINK-31385,2024-031W,2026-06-13T09:16:00.224544,15.34394749,.00012436,53.1602,208.6859,85.6724,274.4421,0,U,58985,999,13121,.40442601E-4,.99E-5,0
STARLINK-31229,2024-031X,2026-06-13T09:52:18.350400,15.30194466,.00011378,53.1581,212.4190,53.8374,306.2732,0,U,58986,999,13116,-.1954561E-5,-.417E-5,0
STARLINK-31468,2024-036A,2026-06-13T19:25:25.768128,15.30184209,.00009468,53.1599,351.3841,95.5249,264.5860,0,U,58998,999,13005,.60418221E-4,.143E-4,0
STARLINK-31440,2024-036B,2026-06-14T04:52:47.449344,15.30197171,.0000837,53.1587,349.5701,106.5798,253.5295,0,U,58999,999,12929,.50124E-3,.14514E-3,0
STARLINK-31529,2024-036C,2026-06-13T19:53:32.586432,15.30180772,.00012753,53.1609,349.3791,84.8724,275.2422,0,U,59000,999,12999,-.75450583E-4,-.2592E-4,0
STARLINK-31431,2024-036E,2026-06-13T18:58:14.640672,15.30192420,.00012701,53.1626,351.9661,90.0893,270.0254,0,U,59002,999,13003,.45440301E-4,.987E-5,0
STARLINK-31435,2024-036G,2026-06-14T04:54:18.730944,15.30188352,.0001167,53.1631,349.5772,110.2054,249.9072,0,U,59004,999,13011,.85658E-4,.2178E-4,0
STARLINK-31484,2024-036H,2026-06-14T04:58:52.179168,15.30193088,.0001443,53.1633,349.5982,108.9816,251.1341,0,U,59005,999,13010,.11215E-4,-.27E-6,0
STARLINK-31450,2024-036J,2026-06-13T19:45:11.888928,15.30184293,.00014915,53.1625,351.4616,91.4208,268.6964,0,U,59006,999,13004,-.16078817E-4,-.835E-5,0
STARLINK-31456,2024-036K,2026-06-13T19:39:06.865344,15.30189213,.00012584,53.1621,351.4361,106.3005,253.8134,0,U,59007,999,13004,-.22629649E-4,-.1029E-4,0
STARLINK-31460,2024-036L,2026-06-13T18:47:36.364128,15.30186673,.00013747,53.1623,351.9227,92.4045,267.7113,0,U,59008,999,13003,.1246471E-4,.1E-6,0
STARLINK-31488,2024-036M,2026-06-14T04:57:20.678112,15.30201213,.0001099,53.1621,349.5841,74.8946,285.2176,0,U,59009,999,13010,.10572E-4,-.46E-6,0
STARLINK-31528,2024-036N,2026-06-13T19:17:59.730720,15.30183890,.000109,53.1602,352.0577,93.2851,266.8274,0,U,59010,999,13003,.92989436E-4,.2395E-4,0
STARLINK-31491,2024-036P,2026-06-13T19:19:31.003680,15.30193844,.00009315,53.1624,352.0607,108.6284,251.4818,0,U,59011,999,13003,.13720225E-4,.47E-6,0
STARLINK-31465,2024-036Q,2026-06-13T19:11:54.278592,15.30231238,.00013883,53.1612,352.0239,99.0145,261.1013,0,U,59012,999,13003,.28720071E-3,.8164E-4,0
STARLINK-31389,2024-036R,2026-06-13T19:16:28.375680,15.30191252,.00012462,53.1630,352.0468,98.2237,261.8905,0,U,59013,999,13004,.15373473E-4,.96E-6,0
STARLINK-31454,2024-036S,2026-06-13T19:07:21.536256,15.30193127,.00013395,53.1626,352.0047,90.1211,269.9943,0,U,59014,999,13003,.32478808E-4,.603E-5,0
